[
  {
    "COMMENT": "GENERATED VIA SPACETRACK.ORG API",
    "ORIGINATOR": "18 SPCS",
    "NORAD_CAT_ID": "33105",
    "OBJECT_NAME": "JASON 2",
    "OBJECT_TYPE": "PAYLOAD",
    "CLASSIFICATION_TYPE": "U",
    "INTLDES": "08032A",
    "EPOCH": "2023-08-24 21:35:44",
    "EPOCH_MICROSECONDS": "132640",
    "MEAN_MOTION": "12.87662016",
    "ECCENTRICITY": "0.0007977",
    "INCLINATION": "66.0393",
    "RA_OF_ASC_NODE": "50.9661",
    "ARG_OF_PERICENTER": "267.2788",
    "MEAN_ANOMALY": "244.3533",
    "EPHEMERIS_TYPE": "0",
    "ELEMENT_SET_NO": "999",
    "REV_AT_EPOCH": "71143",
    "BSTAR": "-0.000023224",
    "MEAN_MOTION_DOT": "-0.00000068",
    "MEAN_MOTION_DDOT": "0",
    "FILE": "3988199",
    "TLE_LINE0": "0 JASON 2",
    "TLE_LINE1": "1 33105U 08032A   23236.89981635 -.00000068  00000-0 -23224-4 0  9993",
    "TLE_LINE2": "2 33105  66.0393  50.9661 0007977 267.2788 244.3533 12.87662016711437",
    "OBJECT_ID": "2008-032A",
    "OBJECT_NUMBER": "33105",
    "SEMIMAJOR_AXIS": "7688.954",
    "PERIOD": "111.831",
    "APOGEE": "1316.952",
    "PERIGEE": "1304.685",
    "DECAYED": "0"
  },
  {
    "COMMENT": "GENERATED VIA SPACETRACK.ORG API",
    "ORIGINATOR": "18 SPCS",
    "NORAD_CAT_ID": "33105",
    "OBJECT_NAME": "JASON 2",
    "OBJECT_TYPE": "PAYLOAD",
    "CLASSIFICATION_TYPE": "U",
    "INTLDES": "08032A",
    "EPOCH": "2023-08-25 13:53:43",
    "EPOCH_MICROSECONDS": "318176",
    "MEAN_MOTION": "12.87662092",
    "ECCENTRICITY": "0.000798",
    "INCLINATION": "66.0405",
    "RA_OF_ASC_NODE": "49.5377",
    "ARG_OF_PERICENTER": "267.1914",
    "MEAN_ANOMALY": "152.4202",
    "EPHEMERIS_TYPE": "0",
    "ELEMENT_SET_NO": "999",
    "REV_AT_EPOCH": "71152",
    "BSTAR": "0.0000078796",
    "MEAN_MOTION_DOT": "-0.0000006",
    "MEAN_MOTION_DDOT": "0",
    "FILE": "3988765",
    "TLE_LINE0": "0 JASON 2",
    "TLE_LINE1": "1 33105U 08032A   23237.57897359 -.00000060  00000-0  78796-5 0  9994",
    "TLE_LINE2": "2 33105  66.0405  49.5377 0007980 267.1914 152.4202 12.87662092711529",
    "OBJECT_ID": "2008-032A",
    "OBJECT_NUMBER": "33105",
    "SEMIMAJOR_AXIS": "7688.953",
    "PERIOD": "111.831",
    "APOGEE": "1316.954",
    "PERIGEE": "1304.683",
    "DECAYED": "0"
  },
  {
    "COMMENT": "GENERATED VIA SPACETRACK.ORG API",
    "ORIGINATOR": "18 SPCS",
    "NORAD_CAT_ID": "33105",
    "OBJECT_NAME": "JASON 2",
    "OBJECT_TYPE": "PAYLOAD",
    "CLASSIFICATION_TYPE": "U",
    "INTLDES": "08032A",
    "EPOCH": "2023-08-25 21:35:48",
    "EPOCH_MICROSECONDS": "462144",
    "MEAN_MOTION": "12.87662062",
    "ECCENTRICITY": "0.0007983",
    "INCLINATION": "66.0406",
    "RA_OF_ASC_NODE": "48.8629",
    "ARG_OF_PERICENTER": "267.2826",
    "MEAN_ANOMALY": "199.7075",
    "EPHEMERIS_TYPE": "0",
    "ELEMENT_SET_NO": "999",
    "REV_AT_EPOCH": "71156",
    "BSTAR": "0.0000049065",
    "MEAN_MOTION_DOT": "-0.00000061",
    "MEAN_MOTION_DDOT": "0",
    "FILE": "3989051",
    "TLE_LINE0": "0 JASON 2",
    "TLE_LINE1": "1 33105U 08032A   23237.89986646 -.00000061  00000-0  49065-5 0  9995",
    "TLE_LINE2": "2 33105  66.0406  48.8629 0007983 267.2826 199.7075 12.87662062711561",
    "OBJECT_ID": "2008-032A",
    "OBJECT_NUMBER": "33105",
    "SEMIMAJOR_AXIS": "7688.954",
    "PERIOD": "111.831",
    "APOGEE": "1316.957",
    "PERIGEE": "1304.681",
    "DECAYED": "0"
  },
  {
    "COMMENT": "GENERATED VIA SPACETRACK.ORG API",
    "ORIGINATOR": "18 SPCS",
    "NORAD_CAT_ID": "33105",
    "OBJECT_NAME": "JASON 2",
    "OBJECT_TYPE": "PAYLOAD",
    "CLASSIFICATION_TYPE": "U",
    "INTLDES": "08032A",
    "EPOCH": "2023-08-25 21:35:48",
    "EPOCH_MICROSECONDS": "462144",
    "MEAN_MOTION": "12.87662062",
    "ECCENTRICITY": "0.0007983",
    "INCLINATION": "66.0406",
    "RA_OF_ASC_NODE": "48.8629",
    "ARG_OF_PERICENTER": "267.2826",
    "MEAN_ANOMALY": "199.7075",
    "EPHEMERIS_TYPE": "0",
    "ELEMENT_SET_NO": "999",
    "REV_AT_EPOCH": "71165",
    "BSTAR": "0.0000049065",
    "MEAN_MOTION_DOT": "-0.00000061",
    "MEAN_MOTION_DDOT": "0",
    "FILE": "3989071",
    "TLE_LINE0": "0 JASON 2",
    "TLE_LINE1": "1 33105U 08032A   23237.89986646 -.00000061  00000-0  49065-5 0  9995",
    "TLE_LINE2": "2 33105  66.0406  48.8629 0007983 267.2826 199.7075 12.87662062711651",
    "OBJECT_ID": "2008-032A",
    "OBJECT_NUMBER": "33105",
    "SEMIMAJOR_AXIS": "7688.954",
    "PERIOD": "111.831",
    "APOGEE": "1316.957",
    "PERIGEE": "1304.681",
    "DECAYED": "0"
  },
  {
    "COMMENT": "GENERATED VIA SPACETRACK.ORG API",
    "ORIGINATOR": "18 SPCS",
    "NORAD_CAT_ID": "33105",
    "OBJECT_NAME": "JASON 2",
    "OBJECT_TYPE": "PAYLOAD",
    "CLASSIFICATION_TYPE": "U",
    "INTLDES": "08032A",
    "EPOCH": "2023-08-26 12:17:49",
    "EPOCH_MICROSECONDS": "920576",
    "MEAN_MOTION": "12.8766206",
    "ECCENTRICITY": "0.0007971",
    "INCLINATION": "66.0407",
    "RA_OF_ASC_NODE": "47.5748",
    "ARG_OF_PERICENTER": "267.3897",
    "MEAN_ANOMALY": "158.6933",
    "EPHEMERIS_TYPE": "0",
    "ELEMENT_SET_NO": "999",
    "REV_AT_EPOCH": "71164",
    "BSTAR": "-0.0000096255",
    "MEAN_MOTION_DOT": "-0.00000065",
    "MEAN_MOTION_DDOT": "0",
    "FILE": "3989608",
    "TLE_LINE0": "0 JASON 2",
    "TLE_LINE1": "1 33105U 08032A   23238.51238334 -.00000065  00000-0 -96255-5 0  9997",
    "TLE_LINE2": "2 33105  66.0407  47.5748 0007971 267.3897 158.6933 12.87662060711640",
    "OBJECT_ID": "2008-032A",
    "OBJECT_NUMBER": "33105",
    "SEMIMAJOR_AXIS": "7688.954",
    "PERIOD": "111.831",
    "APOGEE": "1316.947",
    "PERIGEE": "1304.690",
    "DECAYED": "0"
  },
  {
    "COMMENT": "GENERATED VIA SPACETRACK.ORG API",
    "ORIGINATOR": "18 SPCS",
    "NORAD_CAT_ID": "33105",
    "OBJECT_NAME": "JASON 2",
    "OBJECT_TYPE": "PAYLOAD",
    "CLASSIFICATION_TYPE": "U",
    "INTLDES": "08032A",
    "EPOCH": "2023-08-26 21:50:40",
    "EPOCH_MICROSECONDS": "142976",
    "MEAN_MOTION": "12.87661988",
    "ECCENTRICITY": "0.0007965",
    "INCLINATION": "66.0396",
    "RA_OF_ASC_NODE": "46.7386",
    "ARG_OF_PERICENTER": "267.4349",
    "MEAN_ANOMALY": "202.5175",
    "EPHEMERIS_TYPE": "0",
    "ELEMENT_SET_NO": "999",
    "REV_AT_EPOCH": "71169",
    "BSTAR": "-0.000035041",
    "MEAN_MOTION_DOT": "-0.00000071",
    "MEAN_MOTION_DDOT": "0",
    "FILE": "3989878",
    "TLE_LINE0": "0 JASON 2",
    "TLE_LINE1": "1 33105U 08032A   23238.91018684 -.00000071  00000-0 -35041-4 0  9997",
    "TLE_LINE2": "2 33105  66.0396  46.7386 0007965 267.4349 202.5175 12.87661988711692",
    "OBJECT_ID": "2008-032A",
    "OBJECT_NUMBER": "33105",
    "SEMIMAJOR_AXIS": "7688.954",
    "PERIOD": "111.831",
    "APOGEE": "1316.943",
    "PERIGEE": "1304.695",
    "DECAYED": "0"
  },
  {
    "COMMENT": "GENERATED VIA SPACETRACK.ORG API",
    "ORIGINATOR": "18 SPCS",
    "NORAD_CAT_ID": "33105",
    "OBJECT_NAME": "JASON 2",
    "OBJECT_TYPE": "PAYLOAD",
    "CLASSIFICATION_TYPE": "U",
    "INTLDES": "08032A",
    "EPOCH": "2023-08-27 10:27:08",
    "EPOCH_MICROSECONDS": "720640",
    "MEAN_MOTION": "12.87662047",
    "ECCENTRICITY": "0.000797",
    "INCLINATION": "66.0409",
    "RA_OF_ASC_NODE": "45.6337",
    "ARG_OF_PERICENTER": "267.442",
    "MEAN_ANOMALY": "117.4842",
    "EPHEMERIS_TYPE": "0",
    "ELEMENT_SET_NO": "999",
    "REV_AT_EPOCH": "71176",
    "BSTAR": "0.0000005044",
    "MEAN_MOTION_DOT": "-0.00000062",
    "MEAN_MOTION_DDOT": "0",
    "FILE": "3990390",
    "TLE_LINE0": "0 JASON 2",
    "TLE_LINE1": "1 33105U 08032A   23239.43551760 -.00000062  00000-0  50440-6 0  9993",
    "TLE_LINE2": "2 33105  66.0409  45.6337 0007970 267.4420 117.4842 12.87662047711767",
    "OBJECT_ID": "2008-032A",
    "OBJECT_NUMBER": "33105",
    "SEMIMAJOR_AXIS": "7688.954",
    "PERIOD": "111.831",
    "APOGEE": "1316.947",
    "PERIGEE": "1304.691",
    "DECAYED": "0"
  },
  {
    "COMMENT": "GENERATED VIA SPACETRACK.ORG API",
    "ORIGINATOR": "18 SPCS",
    "NORAD_CAT_ID": "33105",
    "OBJECT_NAME": "JASON 2",
    "OBJECT_TYPE": "PAYLOAD",
    "CLASSIFICATION_TYPE": "U",
    "INTLDES": "08032A",
    "EPOCH": "2023-08-27 20:09:40",
    "EPOCH_MICROSECONDS": "975776",
    "MEAN_MOTION": "12.87661955",
    "ECCENTRICITY": "0.0007981",
    "INCLINATION": "66.0398",
    "RA_OF_ASC_NODE": "44.7833",
    "ARG_OF_PERICENTER": "267.3628",
    "MEAN_ANOMALY": "192.6573",
    "EPHEMERIS_TYPE": "0",
    "ELEMENT_SET_NO": "999",
    "REV_AT_EPOCH": "71181",
    "BSTAR": "-0.000051301",
    "MEAN_MOTION_DOT": "-0.00000075",
    "MEAN_MOTION_DDOT": "0",
    "FILE": "3990698",
    "TLE_LINE0": "0 JASON 2",
    "TLE_LINE1": "1 33105U 08032A   23239.84005759 -.00000075  00000-0 -51301-4 0  9990",
    "TLE_LINE2": "2 33105  66.0398  44.7833 0007981 267.3628 192.6573 12.87661955711815",
    "OBJECT_ID": "2008-032A",
    "OBJECT_NUMBER": "33105",
    "SEMIMAJOR_AXIS": "7688.954",
    "PERIOD": "111.831",
    "APOGEE": "1316.956",
    "PERIGEE": "1304.682",
    "DECAYED": "0"
  },
  {
    "COMMENT": "GENERATED VIA SPACETRACK.ORG API",
    "ORIGINATOR": "18 SPCS",
    "NORAD_CAT_ID": "33105",
    "OBJECT_NAME": "JASON 2",
    "OBJECT_TYPE": "PAYLOAD",
    "CLASSIFICATION_TYPE": "U",
    "INTLDES": "08032A",
    "EPOCH": "2023-08-28 05:51:51",
    "EPOCH_MICROSECONDS": "921216",
    "MEAN_MOTION": "12.87661981",
    "ECCENTRICITY": "0.0008006",
    "INCLINATION": "66.0398",
    "RA_OF_ASC_NODE": "43.9332",
    "ARG_OF_PERICENTER": "266.9494",
    "MEAN_ANOMALY": "267.0218",
    "EPHEMERIS_TYPE": "0",
    "ELEMENT_SET_NO": "999",
    "REV_AT_EPOCH": "71195",
    "BSTAR": "-0.000045483",
    "MEAN_MOTION_DOT": "-0.00000074",
    "MEAN_MOTION_DDOT": "0",
    "FILE": "3991126",
    "TLE_LINE0": "0 JASON 2",
    "TLE_LINE1": "1 33105U 08032A   23240.24435094 -.00000074  00000-0 -45483-4 0  9998",
    "TLE_LINE2": "2 33105  66.0398  43.9332 0008006 266.9494 267.0218 12.87661981711952",
    "OBJECT_ID": "2008-032A",
    "OBJECT_NUMBER": "33105",
    "SEMIMAJOR_AXIS": "7688.954",
    "PERIOD": "111.831",
    "APOGEE": "1316.975",
    "PERIGEE": "1304.663",
    "DECAYED": "0"
  }
]